{"type":"FeatureCollection","features":[{"type":"Feature","properties":{"uppdrag":"a2018_006","layer":"Multipoint"},"geometry":{"type":"MultiPoint","coordinates":[[16.361521146763188,56.6675122350754],[16.36149978397142,56.66749768837067],[16.361481711030898,56.66751916239238]]}},{"type":"Feature","properties":{"uppdrag":"a2018_006","layer":"Multipoint"},"geometry":{"type":"MultiPoint","coordinates":[[16.36122243050444,56.66735073441227],[16.36123082835938,56.66734694978626],[16.361234388187743,56.6673420410158],[16.361224718939432,56.66733998133756]]}},{"type":"Feature","properties":{"uppdrag":"a2018_006","layer":"Multipoint"},"geometry":{"type":"MultiPoint","coordinates":[[16.361031642601993,56.667487037403724]]}},{"type":"Feature","properties":{"uppdrag":"a2018_006","layer":"Multipoint"},"geometry":{"type":"MultiPoint","coordinates":[[16.36079388437477,56.66764763661735]]}},{"type":"Feature","properties":{"uppdrag":"a2018_006","layer":"Multipoint"},"geometry":{"type":"MultiPoint","coordinates":[[16.361389246137545,56.66750042436033]]}},{"type":"Feature","properties":{"uppdrag":"a2018_006","layer":"Multipoint"},"geometry":{"type":"MultiPoint","coordinates":[[16.361566329088987,56.66744429983259]]}},{"type":"Feature","properties":{"uppdrag":"a2018_006","layer":"Multipoint"},"geometry":{"type":"MultiPoint","coordinates":[[16.361307712611037,56.66738657051705]]}},{"type":"Feature","properties":{"uppdrag":"a2018_006","layer":"Multipoint"},"geometry":{"type":"MultiPoint","coordinates":[[16.36151487820395,56.66713724060643]]}},{"type":"Feature","properties":{"uppdrag":"a2018_006","layer":"Multipoint"},"geometry":{"type":"MultiPoint","coordinates":[[16.361597478974204,56.66712674812386]]}},{"type":"Feature","properties":{"uppdrag":"a2018_006","layer":"Multipoint"},"geometry":{"type":"MultiPoint","coordinates":[[16.3616062216829,56.66705670719408]]}},{"type":"Feature","properties":{"uppdrag":"a2018_006","layer":"Multipoint"},"geometry":{"type":"MultiPoint","coordinates":[[16.361653486119668,56.66731622909303]]}},{"type":"Feature","properties":{"uppdrag":"a2018_006","layer":"Multipoint"},"geometry":{"type":"MultiPoint","coordinates":[[16.36161186200833,56.66718469057053]]}},{"type":"Feature","properties":{"uppdrag":"a2018_006","layer":"Multipoint"},"geometry":{"type":"MultiPoint","coordinates":[[16.362181719426715,56.6672489674572]]}},{"type":"Feature","properties":{"uppdrag":"a2018_006","layer":"Point"},"geometry":{"type":"Point","coordinates":[16.361426121518967,56.66746005603808]}},{"type":"Feature","properties":{"uppdrag":"a2018_006","layer":"Point"},"geometry":{"type":"Point","coordinates":[16.36131000739797,56.667397747805246]}},{"type":"Feature","properties":{"uppdrag":"a2018_006","layer":"Point"},"geometry":{"type":"Point","coordinates":[16.36131779969556,56.66739300840131]}},{"type":"Feature","properties":{"uppdrag":"a2018_006","layer":"Polygon"},"geometry":{"type":"MultiPolygon","coordinates":[[[[16.36100247489313,56.66748364223679],[16.36129445270346,56.66760152490964],[16.361588528247694,56.66738836176864],[16.36188036778727,56.667502380515245],[16.36237290076975,56.66714922623032],[16.361881394575164,56.666947230831944],[16.361831345501546,56.666986418932865],[16.361810115102877,56.66698149902017],[16.361764556734066,56.66701548588431],[16.361622385162136,56.66702992082789],[16.361334956081336,56.667232707223896],[16.361380080353296,56.66725153425803],[16.36135065731276,56.667278904438504],[16.361303566119215,56.66727040308943],[16.36100247489313,56.66748364223679]]]]}},{"type":"Feature","properties":{"uppdrag":"a2018_006","layer":"Polygon"},"geometry":{"type":"MultiPolygon","coordinates":[[[[16.361552040526455,56.667107384758886],[16.361554516675824,56.66711088877903],[16.36155950025716,56.66711423959251],[16.361562886217484,56.66711537061605],[16.361567296376116,56.667114585625974],[16.361570889341504,56.667113764646366],[16.361568041242933,56.667111711274465],[16.36156635676545,56.66710979792364],[16.36155848193617,56.66710726940196],[16.36155399565846,56.66710594375504],[16.361552988442657,56.66710652082158],[16.361552040526455,56.667107384758886]]]]}},{"type":"Feature","properties":{"uppdrag":"a2018_006","layer":"Polygon"},"geometry":{"type":"MultiPolygon","coordinates":[[[[16.361580796714918,56.66710432991138],[16.3615837673004,56.66710706480173],[16.361586191856023,56.66710823329204],[16.36158874030973,56.66710966997676],[16.361593718755117,56.667110163623136],[16.361593855192776,56.66710987461209],[16.361580796714918,56.66710432991138]]]]}},{"type":"Feature","properties":{"uppdrag":"a2018_006","layer":"Polygon"},"geometry":{"type":"MultiPolygon","coordinates":[[[[16.361596545915162,56.66711118395135],[16.361598032619636,56.667112138072085],[16.361599814550246,56.66711313388949],[16.36160339592537,56.667114253790174],[16.36160725600654,56.66711495733437],[16.361607587533893,56.6671146482201],[16.36160889203383,56.66711371748839],[16.361596545915162,56.66711118395135]]]]}},{"type":"Feature","properties":{"uppdrag":"a2018_006","layer":"Polygon"},"geometry":{"type":"MultiPolygon","coordinates":[[[[16.361561674217455,56.66712067601842],[16.361570435514313,56.66712154161162],[16.361574209988206,56.66711896657723],[16.361579773979994,56.66711578795198],[16.361585170213544,56.66710819315901],[16.361581097797647,56.667105040745014],[16.36153761048869,56.66709200212772],[16.36152079309053,56.667101340710666],[16.361539757131016,56.667114938230796],[16.361552012701463,56.667118146456914],[16.361561674217455,56.66712067601842]]]]}},{"type":"Feature","properties":{"uppdrag":"a2018_006","layer":"Polygon"},"geometry":{"type":"MultiPolygon","coordinates":[[[[16.361618956520896,56.667135333104376],[16.36163059458568,56.66712185417211],[16.3616086102907,56.66711418536191],[16.361596349478972,56.667110831911636],[16.361582477443683,56.667104329503495],[16.361553257479947,56.66709678715254],[16.36153676667075,56.6670905582142],[16.361519578771208,56.66710135138238],[16.36153979209102,56.66711570399731],[16.361563142134305,56.667121109216474],[16.361590022012308,56.66712891974729],[16.361618956520896,56.667135333104376]]]]}},{"type":"Feature","properties":{"uppdrag":"a2018_006","layer":"Polygon"},"geometry":{"type":"MultiPolygon","coordinates":[[[[16.361494945124186,56.66716985261876],[16.361474716742023,56.66719082908005],[16.361496402259565,56.66719804052102],[16.361509241001567,56.66718798971781],[16.361516326844477,56.66717859482351],[16.36150709977333,56.66717333886972],[16.361494945124186,56.66716985261876]]]]}},{"type":"Feature","properties":{"uppdrag":"a2018_006","layer":"Polygon"},"geometry":{"type":"MultiPolygon","coordinates":[[[[16.36159270150622,56.66706340795379],[16.36162753847396,56.66707467154877],[16.361634316050857,56.6670598980183],[16.361616910663603,56.66705281949886],[16.361602847788898,56.66704838195028],[16.36159270150622,56.66706340795379]]]]}},{"type":"Feature","properties":{"uppdrag":"a2018_006","layer":"Polygon"},"geometry":{"type":"MultiPolygon","coordinates":[[[[16.36158842476097,56.667064272350785],[16.361633737338156,56.667076427714825],[16.361642318640314,56.66706415923822],[16.36162487041768,56.66705363095804],[16.36160210375412,56.66704675482067],[16.36158842476097,56.667064272350785]]]]}},{"type":"Feature","properties":{"uppdrag":"a2018_006","layer":"Polygon"},"geometry":{"type":"MultiPolygon","coordinates":[[[[16.361622172665985,56.66705303150923],[16.36159995399558,56.66706677888098],[16.361617234119734,56.66707128906977],[16.361634216677356,56.667059404931344],[16.361622172665985,56.66705303150923]]]]}},{"type":"Feature","properties":{"uppdrag":"a2018_006","layer":"Polygon"},"geometry":{"type":"MultiPolygon","coordinates":[[[[16.362053036477175,56.66720021035542],[16.362073662465253,56.66718890626729],[16.362030477519102,56.66716990001728],[16.362010508810275,56.667182031703064],[16.362053036477175,56.66720021035542]]]]}},{"type":"Feature","properties":{"uppdrag":"a2018_006","layer":"Polygon"},"geometry":{"type":"MultiPolygon","coordinates":[[[[16.361766731293255,56.66716880345987],[16.361818864668344,56.66718818894985],[16.361834408999158,56.667175790399725],[16.36178227995805,56.6671560724248],[16.361766731293255,56.66716880345987]]]]}},{"type":"Feature","properties":{"uppdrag":"a2018_006","layer":"Polygon"},"geometry":{"type":"MultiPolygon","coordinates":[[[[16.361602649367132,56.66719625883053],[16.36163944779805,56.66717413077964],[16.36162247739617,56.667165088779804],[16.36158389853439,56.667186715165286],[16.361602649367132,56.66719625883053]]]]}},{"type":"Feature","properties":{"uppdrag":"a2018_006","layer":"Polygon"},"geometry":{"type":"MultiPolygon","coordinates":[[[[16.361649506361598,56.66730733085507],[16.36163727295325,56.66731923494296],[16.36167512009315,56.66733387091507],[16.361689307089495,56.6673227451231],[16.361649506361598,56.66730733085507]]]]}},{"type":"Feature","properties":{"uppdrag":"a2018_006","layer":"Polygon"},"geometry":{"type":"MultiPolygon","coordinates":[[[[16.361475322442065,56.66714703688099],[16.361495916567847,56.66715878149387],[16.361536866587077,56.66713548495889],[16.361506783222172,56.66711983860565],[16.361475322442065,56.66714703688099]]]]}},{"type":"Feature","properties":{"uppdrag":"a2018_006","layer":"Polygon"},"geometry":{"type":"MultiPolygon","coordinates":[[[[16.362191394293735,56.667262112841925],[16.362209179691703,56.66724986942824],[16.362155924540936,56.66722608474846],[16.362138677958438,56.667237432747946],[16.362191394293735,56.667262112841925]]]]}},{"type":"Feature","properties":{"uppdrag":"a2018_006","layer":"Polygon"},"geometry":{"type":"MultiPolygon","coordinates":[[[[16.36143799013742,56.66748011551204],[16.361467024699632,56.6674589798819],[16.361415904239845,56.667436465383986],[16.361389019059928,56.667455663703905],[16.36143799013742,56.66748011551204]]]]}},{"type":"Feature","properties":{"uppdrag":"a2018_006","layer":"Polygon"},"geometry":{"type":"MultiPolygon","coordinates":[[[[16.3614387850992,56.66747410485802],[16.36143725583757,56.6674724234178],[16.3614348414828,56.6674733483119],[16.361432970152762,56.66747485129226],[16.36143179892698,56.6674763106783],[16.36143728455422,56.667478649690665],[16.3614387850992,56.66747410485802]]]]}},{"type":"Feature","properties":{"uppdrag":"a2018_006","layer":"Polygon"},"geometry":{"type":"MultiPolygon","coordinates":[[[[16.361437497803724,56.66747279814121],[16.36143815774559,56.667471640849264],[16.361437593164524,56.667468655025694],[16.361437179867803,56.66746850679982],[16.36143008484221,56.66746905158996],[16.361429277006657,56.6674706327926],[16.361428407721725,56.66747141500441],[16.361430791134627,56.66747279958698],[16.36143306319173,56.66747335876939],[16.361435246034535,56.66747325403911],[16.361437497803724,56.66747279814121]]]]}},{"type":"Feature","properties":{"uppdrag":"a2018_006","layer":"Polygon"},"geometry":{"type":"MultiPolygon","coordinates":[[[[16.361430689646813,56.66747541532393],[16.361433030864813,56.66747472483884],[16.361432953868697,56.66747349473924],[16.361432764076355,56.66747320929514],[16.361430356020147,56.66747249885506],[16.361428027785504,56.66747219186606],[16.36142579904009,56.66747192871416],[16.361425577775048,56.66747348553374],[16.361427154468863,56.66747467228197],[16.361430689646813,56.66747541532393]]]]}},{"type":"Feature","properties":{"uppdrag":"a2018_006","layer":"Polygon"},"geometry":{"type":"MultiPolygon","coordinates":[[[[16.361423483526483,56.66747287948231],[16.361427203900377,56.66747151801573],[16.361428245811556,56.66747054523214],[16.36142843789879,56.66746953681495],[16.361428330105717,56.6674688102106],[16.361425187379048,56.66746808983277],[16.36142464379603,56.667468401264955],[16.361422007143002,56.66746859182139],[16.361418652867744,56.66746969770595],[16.361417927472257,56.66747039747974],[16.361423483526483,56.66747287948231]]]]}},{"type":"Feature","properties":{"uppdrag":"a2018_006","layer":"Polygon"},"geometry":{"type":"MultiPolygon","coordinates":[[[[16.361417267351364,56.66746973980885],[16.361419989242677,56.66746919790662],[16.36142117386535,56.66746765750947],[16.361422193456328,56.667464708275716],[16.361420680418146,56.66746211917556],[16.361419647190708,56.66746107024506],[16.361416761005568,56.66746112875494],[16.361414010730297,56.667460431041036],[16.361411560307157,56.667460808245636],[16.36141024498487,56.66746189183799],[16.36140797072213,56.66746353399785],[16.36140744957596,56.66746537263019],[16.361406188929216,56.66746570987192],[16.361417267351364,56.66746973980885]]]]}},{"type":"Feature","properties":{"uppdrag":"a2018_006","layer":"Polygon"},"geometry":{"type":"MultiPolygon","coordinates":[[[[16.361421614452397,56.667464489981704],[16.361420962841894,56.66746497330946],[16.361420553934376,56.66746675680489],[16.361421853447442,56.667467497334954],[16.361423518645804,56.66746706582031],[16.361423938006944,56.66746647721208],[16.361423441560653,56.66746492823933],[16.3614223265404,56.66746477870048],[16.361421614452397,56.667464489981704]]]]}},{"type":"Feature","properties":{"uppdrag":"a2018_006","layer":"Polygon"},"geometry":{"type":"MultiPolygon","coordinates":[[[[16.361427055118533,56.667467844788135],[16.36142805283586,56.66746745651102],[16.36143132154869,56.66746669299068],[16.361433288894375,56.66746604253309],[16.361433584033428,56.66746517674878],[16.361433060352486,56.66746423006709],[16.361430486706702,56.66746300030897],[16.361429755392056,56.66746263093568],[16.36142727473013,56.66746262211731],[16.361424846007452,56.66746360107816],[16.361424855930714,56.66746432875255],[16.36142450688104,56.66746550960032],[16.361427055118533,56.667467844788135]]]]}},{"type":"Feature","properties":{"uppdrag":"a2018_006","layer":"Polygon"},"geometry":{"type":"MultiPolygon","coordinates":[[[[16.361427461613548,56.667467804403934],[16.36142675435599,56.667469007138024],[16.361428273045906,56.66746994294113],[16.361429601116797,56.667468760374504],[16.361431921901787,56.66746886079052],[16.361433302353035,56.66746822573457],[16.361433774859467,56.6674677533499],[16.36143327797172,56.667466644645735],[16.361432337844775,56.66746636740519],[16.36142968573478,56.667467034334386],[16.36142873003349,56.66746768271639],[16.361427461613548,56.667467804403934]]]]}},{"type":"Feature","properties":{"uppdrag":"a2018_006","layer":"Polygon"},"geometry":{"type":"MultiPolygon","coordinates":[[[[16.361420044672922,56.6674580649181],[16.361419359674187,56.667458979889645],[16.361420001746566,56.66746004208167],[16.361420591438673,56.667460556762975],[16.361421919922694,56.667460290659214],[16.361423014979092,56.667459434099285],[16.361422445602496,56.66745857776688],[16.361420907686597,56.667457561309114],[16.361420044672922,56.6674580649181]]]]}},{"type":"Feature","properties":{"uppdrag":"a2018_006","layer":"Polygon"},"geometry":{"type":"MultiPolygon","coordinates":[[[[16.361423753592167,56.66745683835145],[16.361422631859863,56.66745740768389],[16.361422895850087,56.667458393144756],[16.361423471821684,56.66745897985586],[16.36142518613331,56.66746036276892],[16.3614272734901,56.66745987272886],[16.361427715847164,56.66745992180233],[16.361428125284835,56.66745860551972],[16.36142800948406,56.66745856186091],[16.361427793663566,56.66745800715214],[16.36142619556604,56.66745758436071],[16.361423753592167,56.66745683835145]]]]}},{"type":"Feature","properties":{"uppdrag":"a2018_006","layer":"Polygon"},"geometry":{"type":"MultiPolygon","coordinates":[[[[16.361426090922496,56.667456040089306],[16.361427614676863,56.667457568845336],[16.36142929506978,56.667458916189304],[16.361430623526026,56.667460006816796],[16.36143250313181,56.66746054333505],[16.36143386164786,56.66746020502303],[16.36143649196699,56.66745802885639],[16.36143754488983,56.66745736144141],[16.361435979973578,56.66745604877494],[16.36143517328232,56.66745449420923],[16.361431351712238,56.667454859450366],[16.361429249897995,56.66745449607606],[16.361426090922496,56.667456040089306]]]]}},{"type":"Feature","properties":{"uppdrag":"a2018_006","layer":"Polygon"},"geometry":{"type":"MultiPolygon","coordinates":[[[[16.361437311903018,56.66745633071674],[16.361440127100995,56.667457018735334],[16.36144251204305,56.66745754074348],[16.361444542808204,56.6674563864338],[16.3614462211955,56.66745541567622],[16.361445570701264,56.66745411996708],[16.361443591930346,56.66745354859334],[16.361441503071713,56.66745354447653],[16.361439176871233,56.667454198857705],[16.36143776897961,56.667454977973335],[16.361437311903018,56.66745633071674]]]]}},{"type":"Feature","properties":{"uppdrag":"a2018_006","layer":"Polygon"},"geometry":{"type":"MultiPolygon","coordinates":[[[[16.361437506815264,56.66745449565105],[16.361439930561602,56.667453831218445],[16.361440608434147,56.667452718655305],[16.361441126546456,56.66745124843989],[16.3614388059967,56.6674502495241],[16.361436589587772,56.667448970935475],[16.36143375604591,56.667447321725156],[16.36143168037751,56.66744677836555],[16.361430804939282,56.667447389930146],[16.361429662568007,56.66744829193233],[16.361429999137055,56.66744993250276],[16.361431354034718,56.66745220885771],[16.361430415410403,56.66745242577428],[16.361431857930604,56.66745396440338],[16.361436695444972,56.66745462132663],[16.361437506815264,56.66745449565105]]]]}},{"type":"Feature","properties":{"uppdrag":"a2018_006","layer":"Polygon"},"geometry":{"type":"MultiPolygon","coordinates":[[[[16.361429465684378,56.66745142984075],[16.361429042995113,56.6674510211533],[16.361428053492645,56.66745118471626],[16.36142673484285,56.66745127101309],[16.36142549245169,56.66745166196526],[16.361424571847795,56.667452831092],[16.361425303692734,56.66745366767815],[16.361425445404493,56.66745442985157],[16.361427030429144,56.66745494263568],[16.36142880927764,56.66745404265978],[16.36143014653403,56.66745266232328],[16.361429991308377,56.667452430411075],[16.361429334426475,56.66745186255457],[16.361429465684378,56.66745142984075]]]]}},{"type":"Feature","properties":{"uppdrag":"a2018_006","layer":"Polygon"},"geometry":{"type":"MultiPolygon","coordinates":[[[[16.36141874970771,56.66744116037043],[16.361394976482707,56.667460225833516],[16.36143809374751,56.667479368626424],[16.361461398433544,56.667461790798534],[16.36141874970771,56.66744116037043]]]]}},{"type":"Feature","properties":{"uppdrag":"a2018_006","layer":"Polygon"},"geometry":{"type":"MultiPolygon","coordinates":[[[[16.361395626032582,56.66746013786729],[16.361436829124205,56.66747869060989],[16.361459223598654,56.66746121258371],[16.361421904209205,56.66744175483005],[16.361395626032582,56.66746013786729]]]]}},{"type":"Feature","properties":{"uppdrag":"a2018_006","layer":"Polygon"},"geometry":{"type":"MultiPolygon","coordinates":[[[[16.361458524816804,56.66745993537254],[16.361461230097838,56.66745802793499],[16.361422602308267,56.667439393134494],[16.36142004330063,56.66744083175335],[16.361436927156227,56.66744928171883],[16.361458524816804,56.66745993537254]]]]}},{"type":"Feature","properties":{"uppdrag":"a2018_006","layer":"Polygon"},"geometry":{"type":"MultiPolygon","coordinates":[[[[16.361445016518378,56.667471332251],[16.361436268360233,56.66746857067539],[16.361434089018395,56.66746650998874],[16.361433554559465,56.66746435943839],[16.36143893694593,56.66745976317966],[16.36144613089232,56.66745517406924],[16.361431907678885,56.667445841443126],[16.361422292962477,56.66745344003068],[16.361413163173825,56.66746045827737],[16.36140618937057,56.66746526960336],[16.36143757383585,56.66747897897191],[16.361445016518378,56.667471332251]]]]}},{"type":"Feature","properties":{"uppdrag":"a2018_006","layer":"Polygon"},"geometry":{"type":"MultiPolygon","coordinates":[[[[16.361446609137595,56.66747024562649],[16.36144939780449,56.66746884043605],[16.361385023624344,56.66743853710058],[16.361384548055245,56.66743575695804],[16.361378666778037,56.66743194873325],[16.361370764392756,56.66743227772241],[16.36136863952552,56.66743399012804],[16.361367265963754,56.667435721274764],[16.36136981699265,56.667438586546666],[16.361375204299186,56.66744136690035],[16.361382852943596,56.66744078910576],[16.361446609137595,56.66747024562649]]]]}},{"type":"Feature","properties":{"uppdrag":"a2018_006","layer":"Polygon"},"geometry":{"type":"MultiPolygon","coordinates":[[[[16.361395336751468,56.66745980858595],[16.361421434584596,56.66743868710348],[16.36141494185487,56.667436475905824],[16.361388166851555,56.667456014449996],[16.361395336751468,56.66745980858595]]]]}},{"type":"Feature","properties":{"uppdrag":"a2018_006","layer":"Polygon"},"geometry":{"type":"MultiPolygon","coordinates":[[[[16.361394491344544,56.667460347942146],[16.361407603505995,56.66746556861669],[16.36140725613216,56.667464080908886],[16.36141419018636,56.66745907234798],[16.361430338497424,56.667447125480635],[16.361417881718765,56.667441978507895],[16.361394491344544,56.667460347942146]]]]}},{"type":"Feature","properties":{"uppdrag":"a2018_006","layer":"Polygon"},"geometry":{"type":"MultiPolygon","coordinates":[[[[16.361434068689565,56.667478163722],[16.361444375830526,56.6674712134662],[16.36145686415369,56.66746049262769],[16.361420144470397,56.66744318471039],[16.361395858193138,56.66745933566642],[16.361434068689565,56.667478163722]]]]}},{"type":"Feature","properties":{"uppdrag":"a2018_006","layer":"Polygon"},"geometry":{"type":"MultiPolygon","coordinates":[[[[16.36135504405814,56.66740088537474],[16.3613422550379,56.667395122063645],[16.361325953586956,56.66738653094388],[16.361302775336778,56.667378652933785],[16.361292059011426,56.66738964190439],[16.361306947564987,56.66739570572712],[16.361326701181703,56.66740681084156],[16.36134135611594,56.66741182597233],[16.36135504405814,56.66740088537474]]]]}},{"type":"Feature","properties":{"uppdrag":"a2018_006","layer":"Polygon"},"geometry":{"type":"MultiPolygon","coordinates":[[[[16.3613145197525,56.66740296366959],[16.36131914447437,56.66738414350065],[16.36131586879179,56.66738290344513],[16.36131148085112,56.66740195463473],[16.3613145197525,56.66740296366959]]]]}},{"type":"Feature","properties":{"uppdrag":"a2018_006","layer":"Polygon"},"geometry":{"type":"MultiPolygon","coordinates":[[[[16.361347072362225,56.66740924768672],[16.36134915727505,56.66740687981517],[16.361328970095613,56.66739823234194],[16.361294783091054,56.66738327771799],[16.36129251551006,56.66738555773584],[16.36131385161079,56.667394390324],[16.361347072362225,56.66740924768672]]]]}},{"type":"Feature","properties":{"uppdrag":"a2018_006","layer":"Polygon"},"geometry":{"type":"MultiPolygon","coordinates":[[[[16.361317605903974,56.66740248185025],[16.361322175928493,56.66740464039582],[16.361324361505833,56.66740166107492],[16.36133006132179,56.6673995322184],[16.361335899022606,56.66739534429522],[16.361338863980077,56.667393592246796],[16.361327049050946,56.66738850949895],[16.361318887147398,56.667384623415956],[16.361308484735815,56.667380894444406],[16.361303944933315,56.66738624440037],[16.361298230804504,56.667392402184525],[16.3613057065936,56.66739505898798],[16.361312276004945,56.66739775894418],[16.361317605903974,56.66740248185025]]]]}},{"type":"Feature","properties":{"uppdrag":"a2018_006","layer":"Polygon"},"geometry":{"type":"MultiPolygon","coordinates":[[[[16.361316404364732,56.667383274959],[16.36130256755138,56.667394612518656],[16.361305374527195,56.66739552525448],[16.361325468332875,56.66740565627293],[16.361340175163413,56.66739446194386],[16.361316404364732,56.667383274959]]]]}},{"type":"Feature","properties":{"uppdrag":"a2018_006","layer":"Polygon"},"geometry":{"type":"MultiPolygon","coordinates":[[[[16.36135453224517,56.66740072025569],[16.361325963595256,56.66738816609968],[16.3613036227728,56.6673790749482],[16.36129256001792,56.66738995988639],[16.361311135283565,56.66739734912104],[16.36132750445476,56.66740646063088],[16.361343138701837,56.66741283975619],[16.36135453224517,56.66740072025569]]]]}},{"type":"Feature","properties":{"uppdrag":"a2018_006","layer":"Polygon"},"geometry":{"type":"MultiPolygon","coordinates":[[[[16.361354342777663,56.667400443792886],[16.361340418865694,56.66739443232466],[16.36132275186349,56.66740544337606],[16.36134160176153,56.66741185024172],[16.361354342777663,56.667400443792886]]]]}},{"type":"Feature","properties":{"uppdrag":"a2018_006","layer":"Polygon"},"geometry":{"type":"MultiPolygon","coordinates":[[[[16.361354227624894,56.66740041809688],[16.36134191378993,56.667395161734234],[16.36132543085174,56.6674055219081],[16.361342307576212,56.667412417563725],[16.361354227624894,56.66740041809688]]]]}},{"type":"Feature","properties":{"uppdrag":"a2018_006","layer":"Polygon"},"geometry":{"type":"MultiPolygon","coordinates":[[[[16.361325075882963,56.66740563360844],[16.361340820218476,56.66741144547716],[16.36135414250435,56.66740032019276],[16.361341955599634,56.66739496360773],[16.361325075882963,56.66740563360844]]]]}},{"type":"Feature","properties":{"uppdrag":"a2018_006","layer":"Polygon"},"geometry":{"type":"MultiPolygon","coordinates":[[[[16.361458396025608,56.66749980310948],[16.361453433851757,56.667504286954966],[16.3614951461782,56.66752066873228],[16.36150099197676,56.667516705337235],[16.361458396025608,56.66749980310948]]]]}},{"type":"Feature","properties":{"uppdrag":"a2018_006","layer":"Polygon"},"geometry":{"type":"MultiPolygon","coordinates":[[[[16.361508347414148,56.667500757450625],[16.361536403190996,56.66751401800123],[16.361557899321962,56.667527736624216],[16.361563382926796,56.66752277985441],[16.361545599278372,56.66751426786446],[16.361508347414148,56.667500757450625]]]]}},{"type":"Feature","properties":{"uppdrag":"a2018_006","layer":"Polygon"},"geometry":{"type":"MultiPolygon","coordinates":[[[[16.361471081487483,56.66751762537596],[16.361476758328315,56.66751983650636],[16.361482569610946,56.66749048195357],[16.361473659417683,56.66748729985842],[16.361474486322106,56.667493939698055],[16.361471081487483,56.66751762537596]]]]}},{"type":"Feature","properties":{"uppdrag":"a2018_006","layer":"Polygon"},"geometry":{"type":"MultiPolygon","coordinates":[[[[16.361541140617774,56.66753090287766],[16.361556865972958,56.66752080253825],[16.361530053939358,56.66750945117754],[16.361484419510834,56.66749109966061],[16.361471433612326,56.66748576080891],[16.361457315453976,56.6675001563528],[16.361448881087227,56.6675088112489],[16.361489112321365,56.667523942340225],[16.361498663971553,56.66751549984964],[16.361541140617774,56.66753090287766]]]]}},{"type":"Feature","properties":{"uppdrag":"a2018_006","layer":"Polygon"},"geometry":{"type":"MultiPolygon","coordinates":[[[[16.36150218004425,56.66751571298506],[16.361549593368636,56.66753149969171],[16.361556421599058,56.6675264166265],[16.36153149313472,56.66750999250978],[16.36151100866127,56.667502606212565],[16.361487423641197,56.667509243416596],[16.361467158763023,56.66751570621638],[16.36147653477542,56.66751821222111],[16.36150218004425,56.66751571298506]]]]}},{"type":"Feature","properties":{"uppdrag":"a2018_006","layer":"Polygon"},"geometry":{"type":"MultiPolygon","coordinates":[[[[16.36122548824585,56.66735814952953],[16.361224714068896,56.667357043855766],[16.36124061637499,56.66735139816868],[16.361248316751013,56.66734637225476],[16.36123992703162,56.667340426066545],[16.36122707633032,56.6673361189838],[16.361218678681507,56.667340361840985],[16.361210097801685,56.66734540636322],[16.361218532854718,56.66735260995417],[16.36122548824585,56.66735814952953]]]]}},{"type":"Feature","properties":{"uppdrag":"a2018_006","layer":"Polygon"},"geometry":{"type":"MultiPolygon","coordinates":[[[[16.3614664079885,56.66751472940227],[16.361490564057945,56.66752392646741],[16.361496487189566,56.667514867746895],[16.361545836197763,56.66753169612328],[16.36156153355631,56.667522629361386],[16.361528544522795,56.66750922508718],[16.361505728042665,56.66750097477479],[16.361492827146797,56.66750749516134],[16.3614815104966,56.66750998194173],[16.3614664079885,56.66751472940227]]]]}},{"type":"Feature","properties":{"uppdrag":"a2018_006","layer":"Polygon"},"geometry":{"type":"MultiPolygon","coordinates":[[[[16.361474102616477,56.667494159532694],[16.3614728262411,56.66749225070358],[16.361471956244394,56.66749075074012],[16.361470885856892,56.667489576426696],[16.361468403897604,56.66748953168344],[16.361466818403965,56.66749081589973],[16.36146689516775,56.66749294449922],[16.361467924393875,56.66749433490211],[16.361469096745193,56.66749607415408],[16.361470230876574,56.66749675359704],[16.36147129222126,56.667496319699026],[16.361472616936044,56.66749549656758],[16.361473626223425,56.667494524140295],[16.361474102616477,56.667494159532694]]]]}},{"type":"Feature","properties":{"uppdrag":"a2018_006","layer":"Polygon"},"geometry":{"type":"MultiPolygon","coordinates":[[[[16.36148431839827,56.667491780030176],[16.36148242969898,56.667491579650154],[16.361481383577928,56.667492435675555],[16.361480457999686,56.66749391933117],[16.36148183094971,56.66749579116438],[16.361483759492913,56.66749632714681],[16.361485237049756,56.66749612230731],[16.36148721119798,56.667495660458954],[16.361488125646805,56.66749432068456],[16.361486478521275,56.66749299094758],[16.361484651851377,56.66749211242234],[16.36148431839827,56.667491780030176]]]]}},{"type":"Feature","properties":{"uppdrag":"a2018_006","layer":"Polygon"},"geometry":{"type":"MultiPolygon","coordinates":[[[[16.361467684551535,56.66749582903006],[16.361467435135275,56.66749524773377],[16.361465424179254,56.667494236448526],[16.361463304755272,56.667493837327406],[16.36146162280386,56.667494709289464],[16.361461359316817,56.667495547772845],[16.361461978394352,56.667495972282936],[16.36146467249568,56.667496922189244],[16.36146634805956,56.66749677807986],[16.361467684551535,56.66749582903006]]]]}},{"type":"Feature","properties":{"uppdrag":"a2018_006","layer":"Polygon"},"geometry":{"type":"MultiPolygon","coordinates":[[[[16.36122711357446,56.66735797003258],[16.36123847228016,56.66735302991756],[16.361250661646064,56.667345331318906],[16.36123925873519,56.66733863637742],[16.361226625829463,56.66733358116095],[16.361217518497313,56.66734076986239],[16.36120880777234,56.667345833773894],[16.36122145052866,56.667354330129385],[16.36122711357446,56.66735797003258]]]]}},{"type":"Feature","properties":{"uppdrag":"a2018_006","layer":"Polygon"},"geometry":{"type":"MultiPolygon","coordinates":[[[[16.36120184382253,56.66734548760592],[16.361226315039445,56.667358904214126],[16.361252108433053,56.667344273245995],[16.36122412934307,56.66733177551685],[16.36120184382253,56.66734548760592]]]]}},{"type":"Feature","properties":{"uppdrag":"a2018_006","layer":"Polygon"},"geometry":{"type":"MultiPolygon","coordinates":[[[[16.36103129280022,56.66749815563885],[16.361064934730027,56.66747671816622],[16.361031339428983,56.66746097531018],[16.360998450412044,56.66748609736858],[16.36103129280022,56.66749815563885]]]]}},{"type":"Feature","properties":{"uppdrag":"a2018_006","layer":"Polygon"},"geometry":{"type":"MultiPolygon","coordinates":[[[[16.361006821761823,56.66748539183869],[16.361033297596663,56.6674953753397],[16.361058267400956,56.66747962130828],[16.361032552009696,56.667465274933676],[16.361006821761823,56.66748539183869]]]]}},{"type":"Feature","properties":{"uppdrag":"a2018_006","layer":"Polygon"},"geometry":{"type":"MultiPolygon","coordinates":[[[[16.3607860693752,56.667646769612766],[16.36080099550449,56.66765387534206],[16.360820394952725,56.66763976358853],[16.360804923018772,56.66763154968958],[16.3607860693752,56.667646769612766]]]]}},{"type":"Feature","properties":{"uppdrag":"a2018_006","layer":"Polygon"},"geometry":{"type":"MultiPolygon","coordinates":[[[[16.360802975621443,56.66765312592033],[16.36080869223978,56.66765417758487],[16.36082375984571,56.667641667570116],[16.360820984315804,56.66764026929126],[16.360802975621443,56.66765312592033]]]]}},{"type":"Feature","properties":{"uppdrag":"a2018_006","layer":"Polygon"},"geometry":{"type":"MultiPolygon","coordinates":[[[[16.361007672833093,56.6674854711285],[16.36103396961176,56.6674954578443],[16.361060318578588,56.667479032835146],[16.361032798818925,56.667466241265416],[16.361007672833093,56.6674854711285]]]]}},{"type":"Feature","properties":{"uppdrag":"a2018_006","layer":"Polygon"},"geometry":{"type":"MultiPolygon","coordinates":[[[[16.361006810591128,56.66748508197921],[16.361032758988827,56.66749537224172],[16.361058846726834,56.66747984858544],[16.36103257434826,56.66746589456282],[16.361006810591128,56.66748508197921]]]]}},{"type":"Feature","properties":{"uppdrag":"a2018_006","layer":"Polygon"},"geometry":{"type":"MultiPolygon","coordinates":[[[[16.360784806552125,56.66764433051537],[16.36080097809692,56.66765429782601],[16.360819664362946,56.667640319655945],[16.360804726954655,56.667631542847225],[16.360784806552125,56.66764433051537]]]]}},{"type":"Feature","properties":{"uppdrag":"a2018_006","layer":"Polygon"},"geometry":{"type":"MultiPolygon","coordinates":[[[[16.360785914577846,56.66764383321834],[16.36080463503642,56.6676312563326],[16.360801886179402,56.66763014528095],[16.36078266050625,56.6676422874236],[16.360785914577846,56.66764383321834]]]]}},{"type":"Feature","properties":{"uppdrag":"a2018_006","layer":"Polygon"},"geometry":{"type":"MultiPolygon","coordinates":[[[[16.361360941625087,56.66748795717395],[16.361348604692054,56.66749970961946],[16.36138688822507,56.667513774854996],[16.36139915881491,56.667502445424766],[16.361360941625087,56.66748795717395]]]]}},{"type":"Feature","properties":{"uppdrag":"a2018_006","layer":"Polygon"},"geometry":{"type":"MultiPolygon","coordinates":[[[[16.36149473390051,56.66741964619371],[16.361579868564938,56.667452319128614],[16.361595726565895,56.66744001601485],[16.36150830105011,56.667407619717906],[16.36149473390051,56.66741964619371]]]]}},{"type":"Feature","properties":{"uppdrag":"a2018_006","layer":"Polygon"},"geometry":{"type":"MultiPolygon","coordinates":[[[[16.361549469641066,56.667428383104195],[16.361545247110428,56.66742758468641],[16.361544245208055,56.667426499474495],[16.361542109359608,56.66742654978303],[16.361541491022344,56.66742705071756],[16.36154041066161,56.667427862193016],[16.36154020376965,56.667429364945846],[16.36154114722777,56.667430639481275],[16.361543447788478,56.667431989027726],[16.36154637448415,56.66743169646262],[16.361547910158382,56.667431293317456],[16.361549469641066,56.667428383104195]]]]}},{"type":"Feature","properties":{"uppdrag":"a2018_006","layer":"Polygon"},"geometry":{"type":"MultiPolygon","coordinates":[[[[16.361552007888108,56.667434060809065],[16.36155154283367,56.66743473976711],[16.361548828952323,56.66743459872664],[16.361548220656427,56.66743537808561],[16.361547214519373,56.66743553284645],[16.361548354804725,56.667436382935904],[16.36154997719647,56.66743747933318],[16.36155162790817,56.66743755113374],[16.36155253714736,56.66743742438731],[16.361555451094873,56.667437230796104],[16.361555624275596,56.66743615070562],[16.361554924403507,56.667435295800665],[16.361553496987455,56.66743462855029],[16.361552007888108,56.667434060809065]]]]}},{"type":"Feature","properties":{"uppdrag":"a2018_006","layer":"Polygon"},"geometry":{"type":"MultiPolygon","coordinates":[[[[16.361497735471453,56.66741905433027],[16.361575472646063,56.66744858640809],[16.361590880113212,56.667439939265435],[16.361509885306727,56.66740902974887],[16.361497735471453,56.66741905433027]]]]}},{"type":"Feature","properties":{"uppdrag":"a2018_006","layer":"Polygon"},"geometry":{"type":"MultiPolygon","coordinates":[[[[16.360787204955106,56.66764504933957],[16.360800374740776,56.667652643367695],[16.360818118041518,56.66764034185571],[16.360804954815656,56.66763292979332],[16.360787204955106,56.66764504933957]]]]}},{"type":"Feature","properties":{"uppdrag":"a2018_006","layer":"Polygon"},"geometry":{"type":"MultiPolygon","coordinates":[[[[16.36164145728286,56.66731887947569],[16.361674692855424,56.667331793409055],[16.361684238054625,56.66732215660135],[16.361651632802936,56.66730957612877],[16.36164145728286,56.66731887947569]]]]}},{"type":"Feature","properties":{"uppdrag":"a2018_006","layer":"Polygon"},"geometry":{"type":"MultiPolygon","coordinates":[[[[16.36214305135844,56.6672374741284],[16.362192094540717,56.667260087964934],[16.3622084135081,56.667249696043875],[16.362155674348664,56.66722746308505],[16.36214305135844,56.6672374741284]]]]}},{"type":"Feature","properties":{"uppdrag":"a2018_006","layer":"Polygon"},"geometry":{"type":"MultiPolygon","coordinates":[[[[16.362014905912503,56.66718168090408],[16.362052615287016,56.667198631180945],[16.362071455714954,56.66718957355014],[16.36203061929684,56.667171636160674],[16.362014905912503,56.66718168090408]]]]}},{"type":"Feature","properties":{"uppdrag":"a2018_006","layer":"Polygon"},"geometry":{"type":"MultiPolygon","coordinates":[[[[16.36177142236372,56.667168002542034],[16.361817833315744,56.66718621949144],[16.361831704736485,56.66717653526871],[16.361785269239423,56.66715763771153],[16.36177142236372,56.667168002542034]]]]}},{"type":"Feature","properties":{"uppdrag":"a2018_006","layer":"Polygon"},"geometry":{"type":"MultiPolygon","coordinates":[[[[16.361587213867278,56.6671863582401],[16.361602996655204,56.66719537774018],[16.361636228510257,56.66717390667593],[16.36161929555793,56.66716728293145],[16.361605411812103,56.6671766268243],[16.361587213867278,56.6671863582401]]]]}},{"type":"Feature","properties":{"uppdrag":"a2018_006","layer":"Polygon"},"geometry":{"type":"MultiPolygon","coordinates":[[[[16.361478645313763,56.66714667187959],[16.361497928890877,56.66715636517559],[16.36153315615333,56.66713565051012],[16.361510911584713,56.66712260136095],[16.361478645313763,56.66714667187959]]]]}},{"type":"Feature","properties":{"uppdrag":"a2018_006","layer":"Polygon"},"geometry":{"type":"MultiPolygon","coordinates":[[[[16.36161744235968,56.6670708734839],[16.36163131438424,56.667074891902175],[16.361640865407054,56.667064101452496],[16.361631743800924,56.667060552308484],[16.36161744235968,56.6670708734839]]]]}},{"type":"Feature","properties":{"uppdrag":"a2018_006","layer":"Polygon"},"geometry":{"type":"MultiPolygon","coordinates":[[[[16.3615253386274,56.66710263543147],[16.361541403943708,56.66711497018076],[16.361580152694714,56.667126275116395],[16.361616877293784,56.66713395319585],[16.361628311721475,56.667122881498656],[16.36157651500431,56.66710416091047],[16.36153873146459,56.66709336681816],[16.3615253386274,56.66710263543147]]]]}},{"type":"Feature","properties":{"uppdrag":"a2018_006","layer":"Polygon"},"geometry":{"type":"MultiPolygon","coordinates":[[[[16.3615475063302,56.66752968202961],[16.36155474084945,56.667524575473955],[16.36150417927436,56.667515073319116],[16.36147232516962,56.66751793532706],[16.361488467441756,56.66752247208175],[16.361499113312966,56.66751701402621],[16.36151524426075,56.667521236696714],[16.3615475063302,56.66752968202961]]]]}},{"type":"Feature","properties":{"uppdrag":"a2018_006","layer":"Polygon"},"geometry":{"type":"MultiPolygon","coordinates":[[[[16.361397292337664,56.667502273013326],[16.361361657739014,56.6674891766025],[16.36135486856383,56.66749592702077],[16.36136233811621,56.66750131990345],[16.361383425533237,56.66750776555523],[16.361390750533523,56.66750915424576],[16.361397292337664,56.667502273013326]]]]}},{"type":"Feature","properties":{"uppdrag":"a2018_006","layer":"Polygon"},"geometry":{"type":"MultiPolygon","coordinates":[[[[16.361386540198822,56.66751225094485],[16.361398538325076,56.66750217178753],[16.36136190875038,56.667488435562994],[16.361349948202548,56.66749956150465],[16.361386540198822,56.66751225094485]]]]}},{"type":"Feature","properties":{"uppdrag":"a2018_006","layer":"Polygon"},"geometry":{"type":"MultiPolygon","coordinates":[[[[16.361391085151908,56.667506441887426],[16.36139669398767,56.66750376270464],[16.361364835841634,56.66749049786963],[16.361355481545825,56.66749478875172],[16.361370991996534,56.667502996501184],[16.361391085151908,56.667506441887426]]]]}},{"type":"Feature","properties":{"uppdrag":"a2018_006","layer":"Polygon"},"geometry":{"type":"MultiPolygon","coordinates":[[[[16.361391085151908,56.667506441887426],[16.361396656239307,56.66750271591866],[16.36136095827155,56.66748844595425],[16.361357307175645,56.66749267448532],[16.361391085151908,56.667506441887426]]]]}},{"type":"Feature","properties":{"uppdrag":"a2018_006","layer":"Polygon"},"geometry":{"type":"MultiPolygon","coordinates":[[[[16.36139112290012,56.667507488673394],[16.36139663736675,56.66750219257058],[16.361363885362756,56.66749050826089],[16.361357326047653,56.66749319783341],[16.36139112290012,56.667507488673394]]]]}},{"type":"Feature","properties":{"uppdrag":"a2018_006","layer":"Polyline"},"geometry":{"type":"MultiLineString","coordinates":[[[16.361341382868954,56.667394466710576],[16.3613244919041,56.667405729842436]]]}},{"type":"Feature","properties":{"uppdrag":"a2018_006","layer":"Polyline"},"geometry":{"type":"MultiLineString","coordinates":[[[16.36150140886443,56.66749794913869],[16.361478992259055,56.667508931278256],[16.36146352430019,56.66751395228333]]]}},{"type":"Feature","properties":{"uppdrag":"a2018_006","layer":"Polyline"},"geometry":{"type":"MultiLineString","coordinates":[[[16.361032486467913,56.667494602512654],[16.361055776376265,56.66747932507661]]]}},{"type":"Feature","properties":{"uppdrag":"a2018_006","layer":"project_information"},"geometry":{"type":"Point","coordinates":[16.36142448310627,56.667449864033735]}},{"type":"Feature","properties":{"uppdrag":"a2022_103","layer":"Multipoint"},"geometry":{"type":"MultiPoint","coordinates":[[16.348504315701057,56.65938520011575]]}},{"type":"Feature","properties":{"uppdrag":"a2022_103","layer":"Multipoint"},"geometry":{"type":"MultiPoint","coordinates":[[16.348469641721582,56.65940560314265]]}},{"type":"Feature","properties":{"uppdrag":"a2022_103","layer":"Point"},"geometry":{"type":"Point","coordinates":[16.348433799380953,56.65941476065098]}},{"type":"Feature","properties":{"uppdrag":"a2022_103","layer":"Point"},"geometry":{"type":"Point","coordinates":[16.34843671273454,56.65941410913638]}},{"type":"Feature","properties":{"uppdrag":"a2022_103","layer":"Point"},"geometry":{"type":"Point","coordinates":[16.348497002080983,56.65938049932518]}},{"type":"Feature","properties":{"uppdrag":"a2022_103","layer":"Point"},"geometry":{"type":"Point","coordinates":[16.348503161762604,56.659386236899806]}},{"type":"Feature","properties":{"uppdrag":"a2022_103","layer":"Point"},"geometry":{"type":"Point","coordinates":[16.348510774028323,56.659384680919196]}},{"type":"Feature","properties":{"uppdrag":"a2022_103","layer":"Point"},"geometry":{"type":"Point","coordinates":[16.34847366716306,56.65939817390351]}},{"type":"Feature","properties":{"uppdrag":"a2022_103","layer":"Polygon"},"geometry":{"type":"MultiPolygon","coordinates":[[[[16.36086868108713,56.661441848028076],[16.362938237762926,56.66078252621177],[16.363073636878976,56.659999664702035],[16.361313536959717,56.66001485099624],[16.360453391344045,56.659798971950245],[16.35979902154672,56.65950894199731],[16.35947016227231,56.659250009966236],[16.35845670959413,56.65865235703962],[16.35732824006259,56.65811862018973],[16.356527749481184,56.657074125025986],[16.355961093874843,56.6567572966949],[16.355803944414134,56.65606830569568],[16.35556485189405,56.655882197600434],[16.35517649491923,56.65559097230125],[16.354775970404987,56.655478814107184],[16.35439057868489,56.655391001039355],[16.35372534071965,56.6553613797578],[16.352097270339573,56.65545696235707],[16.351200248396548,56.65544569408643],[16.35097747541434,56.65536528814077],[16.350901500117427,56.655219154290194],[16.35126812906636,56.655030390583484],[16.351308339430616,56.65474540893891],[16.351261901298837,56.65459914337891],[16.35114150089559,56.65444506391904],[16.35077895106719,56.65431213887339],[16.35016358223837,56.65424590988568],[16.349356754092994,56.653614720358156],[16.34847182861423,56.653716224738545],[16.347734154506842,56.65378453766501],[16.346907723798115,56.65384508206397],[16.34613957419711,56.65384842143253],[16.344520561628997,56.656345425799785],[16.34415807917773,56.656931826599795],[16.343490134902613,56.65801233395706],[16.34278699733116,56.65966619723505],[16.341739818578258,56.66028770855786],[16.34158318153837,56.66070337817866],[16.339781498495846,56.661817782934115],[16.34093255654302,56.662756763520754],[16.342680714133422,56.663074734747404],[16.34705481559499,56.66308836376722],[16.348016311544832,56.66432926649944],[16.34989996491155,56.66467088195201],[16.349995948892463,56.66441921484772],[16.350560492644263,56.66365337835214],[16.3508001515891,56.663296833987154],[16.351075638851608,56.663232199222314],[16.35158071803026,56.66311582528931],[16.35211011552685,56.663088136379315],[16.353054298586624,56.66307131186053],[16.35421745046264,56.66302625611951],[16.354724592953186,56.663006608030756],[16.355862705882746,56.662944784771405],[16.356506152150484,56.66284046922628],[16.357688300445048,56.66240036722231],[16.359050025626978,56.66195395409905],[16.36086868108713,56.661441848028076]],[[16.35166654277436,56.66011443564302],[16.35204892152103,56.65999070299528],[16.352963571990287,56.6608215809768],[16.352684877233063,56.661053887500046],[16.35264497815851,56.66105019056651],[16.352181823916048,56.661007274772444],[16.351826515396716,56.660960008431346],[16.35151517771096,56.66088813916259],[16.351185324893397,56.66055595090071],[16.35127112989416,56.660250379322115],[16.35128369839308,56.66020561960992],[16.35166654277436,56.66011443564302]]]]}},{"type":"Feature","properties":{"uppdrag":"a2022_103","layer":"Polygon"},"geometry":{"type":"MultiPolygon","coordinates":[[[[16.348500824257762,56.659378155800596],[16.34852194973913,56.65937998239681],[16.348527440925825,56.659376986545894],[16.348505505699276,56.659374875092034],[16.348500824257762,56.659378155800596]]]]}},{"type":"Feature","properties":{"uppdrag":"a2022_103","layer":"Polygon"},"geometry":{"type":"MultiPolygon","coordinates":[[[[16.348461777386895,56.65940232964624],[16.34845782155959,56.65940561354599],[16.34845660767275,56.659412492015285],[16.348455099272783,56.659417880013486],[16.348454163868237,56.659423150033014],[16.348457806568433,56.65942092921152],[16.348460118432442,56.65941257978219],[16.34846115040908,56.65940721356592],[16.348461777386895,56.65940232964624]]]]}},{"type":"Feature","properties":{"uppdrag":"a2022_103","layer":"Polygon"},"geometry":{"type":"MultiPolygon","coordinates":[[[[16.348539216492075,56.659369564381365],[16.348523987908855,56.65936363077506],[16.34850592368833,56.65937459670317],[16.348482365197253,56.659388993383466],[16.348498733903728,56.6593947504913],[16.348514316708368,56.659384922520886],[16.348526208423998,56.65937765984069],[16.348539216492075,56.659369564381365]]]]}},{"type":"Feature","properties":{"uppdrag":"a2022_103","layer":"Polygon"},"geometry":{"type":"MultiPolygon","coordinates":[[[[16.34853668208342,56.65937124254938],[16.348518353462588,56.659367188030686],[16.348507140094945,56.6593737879099],[16.348491533864266,56.659383105966825],[16.348482765074024,56.659389011874424],[16.348498685307646,56.659394773929286],[16.348513831706402,56.65938515176903],[16.348525477986627,56.65937810199536],[16.34853668208342,56.65937124254938]]]]}},{"type":"Feature","properties":{"uppdrag":"a2022_103","layer":"Polygon"},"geometry":{"type":"MultiPolygon","coordinates":[[[[16.34843859863352,56.65941404800996],[16.348429686835633,56.659412741792885],[16.348425068205028,56.65941401242052],[16.348429939009147,56.65941676118175],[16.348434898909613,56.65941631212702],[16.34843859863352,56.65941404800996]]]]}},{"type":"Feature","properties":{"uppdrag":"a2022_103","layer":"Polygon"},"geometry":{"type":"MultiPolygon","coordinates":[[[[16.348436637927193,56.65941379601187],[16.348429520982233,56.6594127253496],[16.34842402117812,56.65941433338179],[16.348426951395403,56.65941670368814],[16.348432884979424,56.65941610931398],[16.348436637927193,56.65941379601187]]]]}},{"type":"Feature","properties":{"uppdrag":"a2022_103","layer":"Polygon"},"geometry":{"type":"MultiPolygon","coordinates":[[[[16.34843677278783,56.659413867419374],[16.348429587030566,56.6594127246343],[16.348423630088455,56.65941450159292],[16.348428330438445,56.65941736550064],[16.348432869728136,56.65941705290055],[16.34843677278783,56.659413867419374]]]]}},{"type":"Feature","properties":{"uppdrag":"a2022_103","layer":"Polygon"},"geometry":{"type":"MultiPolygon","coordinates":[[[[16.348438684722332,56.65941408310731],[16.348429610274003,56.65941274963032],[16.348422892883306,56.65941473141568],[16.34842578820098,56.65941793824093],[16.348431434519927,56.65941935062531],[16.348436686365435,56.65941885348389],[16.348438684722332,56.65941408310731]]]]}},{"type":"Feature","properties":{"uppdrag":"a2022_103","layer":"Polygon"},"geometry":{"type":"MultiPolygon","coordinates":[[[[16.348436374058675,56.659413817109076],[16.3484295235831,56.6594127981895],[16.348423008399063,56.659414690540935],[16.348428695414086,56.659417398026896],[16.348434750579468,56.65941672704189],[16.348436374058675,56.659413817109076]]]]}},{"type":"Feature","properties":{"uppdrag":"a2022_103","layer":"Polygon"},"geometry":{"type":"MultiPolygon","coordinates":[[[[16.3484384644239,56.659413994834864],[16.34842955522689,56.659412761457695],[16.348422975944363,56.65941470913191],[16.348425891228892,56.659418539117866],[16.348431867739468,56.65941869003098],[16.348436041269746,56.65941769242483],[16.3484384644239,56.659413994834864]]]]}},{"type":"Feature","properties":{"uppdrag":"a2022_103","layer":"Polygon"},"geometry":{"type":"MultiPolygon","coordinates":[[[[16.34846611256288,56.6593998463314],[16.348469862358858,56.65939944605149],[16.348470158008617,56.65939709390986],[16.34846611256288,56.6593998463314]]]]}},{"type":"Feature","properties":{"uppdrag":"a2022_103","layer":"Polygon"},"geometry":{"type":"MultiPolygon","coordinates":[[[[16.348476514475934,56.659392908784156],[16.3484697807484,56.659397375271794],[16.348473486666716,56.65939677420372],[16.348476394838915,56.65939552075157],[16.348476514475934,56.659392908784156]]]]}},{"type":"Feature","properties":{"uppdrag":"a2022_103","layer":"Polygon"},"geometry":{"type":"MultiPolygon","coordinates":[[[[16.34847827334788,56.659394215556325],[16.34847606219828,56.659393254931544],[16.34847167221652,56.65939611773632],[16.348474176021202,56.65939663897149],[16.34847827334788,56.659394215556325]]]]}},{"type":"Feature","properties":{"uppdrag":"a2022_103","layer":"Polygon"},"geometry":{"type":"MultiPolygon","coordinates":[[[[16.348476098565317,56.659393190564714],[16.348471030003875,56.65939657259228],[16.348473461426575,56.65939698113131],[16.348478461189195,56.65939390201316],[16.348476098565317,56.659393190564714]]]]}},{"type":"Feature","properties":{"uppdrag":"a2022_103","layer":"Polygon"},"geometry":{"type":"MultiPolygon","coordinates":[[[[16.34847605991483,56.659393190983316],[16.34846928813369,56.65939767917741],[16.348471735310923,56.659397807035184],[16.348478395504703,56.659394018001656],[16.34847605991483,56.659393190983316]]]]}},{"type":"Feature","properties":{"uppdrag":"a2022_103","layer":"Polygon"},"geometry":{"type":"MultiPolygon","coordinates":[[[[16.348482037220588,56.659389279692505],[16.348474704038566,56.659394082600734],[16.348463168538384,56.65940129280928],[16.348475560967806,56.659409500596],[16.348483355197992,56.65940474327972],[16.348489792319956,56.65940058270728],[16.348499226576564,56.659394576148124],[16.348482037220588,56.659389279692505]]]]}},{"type":"Feature","properties":{"uppdrag":"a2022_103","layer":"Polygon"},"geometry":{"type":"MultiPolygon","coordinates":[[[[16.348539363984855,56.659369797650896],[16.34852425008237,56.65936367187196],[16.34849068311984,56.659383550772006],[16.34846449741666,56.65940088784059],[16.348450691169475,56.65941128022747],[16.348446112820824,56.6594123630831],[16.348439537586472,56.659414177377464],[16.34842956798306,56.65941276689023],[16.34842697886991,56.65941336098333],[16.348420687609046,56.65941536088552],[16.34842019346728,56.65941751364389],[16.348420391468476,56.65942123127536],[16.348421599581407,56.65942765142695],[16.34842770652282,56.65943054134229],[16.348434831667465,56.659430877484766],[16.34844399510439,56.65942890038549],[16.348456104081603,56.65942214732259],[16.348490946056522,56.65939959507332],[16.348522325856145,56.659380144185626],[16.348539363984855,56.659369797650896]]]]}},{"type":"Feature","properties":{"uppdrag":"a2022_103","layer":"Polygon"},"geometry":{"type":"MultiPolygon","coordinates":[[[[16.348427804140353,56.65930762595262],[16.348448957424136,56.65929784584028],[16.348438425522183,56.65929165245689],[16.3484181521924,56.65930094683439],[16.348427804140353,56.65930762595262]]]]}},{"type":"Feature","properties":{"uppdrag":"a2022_103","layer":"Polygon"},"geometry":{"type":"MultiPolygon","coordinates":[[[[16.348437701833085,56.65929422999484],[16.34841756633336,56.65930053088584],[16.34842841440918,56.65930598407957],[16.348447606874075,56.65929931603154],[16.348437701833085,56.65929422999484]]]]}},{"type":"Feature","properties":{"uppdrag":"a2022_103","layer":"Polygon"},"geometry":{"type":"MultiPolygon","coordinates":[[[[16.348420052505986,56.65930025238152],[16.34842918881661,56.6593052838503],[16.34843611598308,56.65930236059406],[16.348427647618976,56.65929684568869],[16.348420052505986,56.65930025238152]]]]}},{"type":"Feature","properties":{"uppdrag":"a2022_103","layer":"Polygon"},"geometry":{"type":"MultiPolygon","coordinates":[[[[16.34843075806126,56.65930354174178],[16.348440878875635,56.65929867908491],[16.34843828013789,56.65929580508569],[16.34842361538665,56.65930042943459],[16.34843075806126,56.65930354174178]]]]}},{"type":"Feature","properties":{"uppdrag":"a2022_103","layer":"Polygon"},"geometry":{"type":"MultiPolygon","coordinates":[[[[16.348204681026246,56.65937645905908],[16.34820086794813,56.65936835996935],[16.348198327500192,56.6593630054836],[16.348198347165834,56.65935807252459],[16.348191589884372,56.659358900430895],[16.348192913057503,56.659371743588956],[16.34819944833484,56.659393030086534],[16.34820799209768,56.659414366714984],[16.34821073083677,56.659429845109415],[16.348227313758436,56.65942639501577],[16.348225896005864,56.65942095649379],[16.348204681026246,56.65937645905908]]]]}},{"type":"Feature","properties":{"uppdrag":"a2022_103","layer":"Polygon"},"geometry":{"type":"MultiPolygon","coordinates":[[[[16.348445852271816,56.65942836812895],[16.34844593423609,56.659428315128466],[16.34844599808385,56.65942833959488],[16.34853891307923,56.65936950603077],[16.348522926920815,56.65936408154143],[16.348495323738106,56.6593820965206],[16.34849333544215,56.6593828674012],[16.348478500379997,56.65939307605002],[16.348477394734356,56.659393797657295],[16.348463423960055,56.65940098033122],[16.348449521145966,56.659411409703665],[16.34843955513344,56.659414189047574],[16.348429538596175,56.65941276630999],[16.348420749011858,56.659415367138955],[16.348419971623407,56.65942135262683],[16.34842399071512,56.65942973699787],[16.348435054210228,56.659430713345216],[16.348445852271816,56.65942836812895]]]]}},{"type":"Feature","properties":{"uppdrag":"a2022_103","layer":"project_information"},"geometry":{"type":"Point","coordinates":[16.348474018286673,56.65939559054428]}},{"type":"Feature","properties":{"uppdrag":"a2023_017","layer":"Polygon"},"geometry":{"type":"MultiPolygon","coordinates":[[[[16.36086868108713,56.661441848028076],[16.362938237762926,56.66078252621177],[16.363073636878976,56.659999664702035],[16.361313536959717,56.66001485099624],[16.360453391344045,56.659798971950245],[16.35979902154672,56.65950894199731],[16.35947016227231,56.659250009966236],[16.35845670959413,56.65865235703962],[16.35732824006259,56.65811862018973],[16.356527749481184,56.657074125025986],[16.355961093874843,56.6567572966949],[16.355803944414134,56.65606830569568],[16.35556485189405,56.655882197600434],[16.35517649491923,56.65559097230125],[16.354775970404987,56.655478814107184],[16.35439057868489,56.655391001039355],[16.35372534071965,56.6553613797578],[16.352097270339573,56.65545696235707],[16.351200248396548,56.65544569408643],[16.35097747541434,56.65536528814077],[16.350901500117427,56.655219154290194],[16.35126812906636,56.655030390583484],[16.351308339430616,56.65474540893891],[16.351261901298837,56.65459914337891],[16.35114150089559,56.65444506391904],[16.35077895106719,56.65431213887339],[16.35016358223837,56.65424590988568],[16.349356754092994,56.653614720358156],[16.34847182861423,56.653716224738545],[16.347734154506842,56.65378453766501],[16.346907723798115,56.65384508206397],[16.34613957419711,56.65384842143253],[16.344520561628997,56.656345425799785],[16.343924019225106,56.65731046358332],[16.343490134902613,56.65801233395706],[16.34278699733116,56.65966619723505],[16.341739818578258,56.66028770855786],[16.34158318153837,56.66070337817866],[16.339781498495846,56.661817782934115],[16.34093255654302,56.662756763520754],[16.342680714133422,56.663074734747404],[16.34705481559499,56.66308836376722],[16.348016311544832,56.66432926649944],[16.34989996491155,56.66467088195201],[16.349995948892463,56.66441921484772],[16.350560492644263,56.66365337835214],[16.3508001515891,56.663296833987154],[16.351075638851608,56.663232199222314],[16.35158071803026,56.66311582528931],[16.35211011552685,56.663088136379315],[16.353054298586624,56.66307131186053],[16.354724592953186,56.663006608030756],[16.3555001329006,56.662964481146794],[16.355862705882746,56.662944784771405],[16.356506152150484,56.66284046922628],[16.357688300445048,56.66240036722231],[16.359050025626978,56.66195395409905],[16.36086868108713,56.661441848028076]],[[16.35166654277436,56.66011443564302],[16.35204892152103,56.65999070299528],[16.352963571990287,56.6608215809768],[16.352684877233063,56.661053887500046],[16.352674942529376,56.66105296701062],[16.352181823916048,56.661007274772444],[16.351826515396716,56.660960008431346],[16.35151517771096,56.66088813916259],[16.351185324893397,56.66055595090071],[16.351274027978366,56.66024005873284],[16.35128369839308,56.66020561960992],[16.35166654277436,56.66011443564302]]]]}},{"type":"Feature","properties":{"uppdrag":"a2023_017","layer":"Polygon"},"geometry":{"type":"MultiPolygon","coordinates":[[[[16.348286666500506,56.65898157952871],[16.34821081430459,56.65897748712094],[16.3481688981941,56.65897507479378],[16.348085458553324,56.658965708438835],[16.348062402103263,56.65897015881885],[16.34803472804338,56.65899123204865],[16.348057400942636,56.658998513273524],[16.34808505888113,56.658976988628844],[16.348177602887255,56.65898858377708],[16.34825959668402,56.658995378057206],[16.34828404213252,56.658998303003365],[16.348286666500506,56.65898157952871]]]]}},{"type":"Feature","properties":{"uppdrag":"a2023_017","layer":"Polygon"},"geometry":{"type":"MultiPolygon","coordinates":[[[[16.348283705559112,56.65899817025634],[16.348286387806606,56.6589814320485],[16.348170267019622,56.65897501226189],[16.34808684178406,56.6589656792658],[16.348063478791577,56.65896969557695],[16.348034722673344,56.6589910816086],[16.348057400942636,56.658998513273524],[16.34808476960424,56.65897654008671],[16.34817319345987,56.658988076970715],[16.348255713165482,56.65899501111525],[16.348283705559112,56.65899817025634]]]]}},{"type":"Feature","properties":{"uppdrag":"a2023_017","layer":"Polygon"},"geometry":{"type":"MultiPolygon","coordinates":[[[[16.34828370018808,56.658998019816316],[16.348286114646832,56.65898143500654],[16.348170267019622,56.65897501226189],[16.348086568624357,56.6589656822234],[16.348062659149335,56.65896970445138],[16.34803526915619,56.658991075691844],[16.348056832972755,56.65899791725061],[16.34808557850615,56.65897623033208],[16.348172532963154,56.65898823435128],[16.34825846153584,56.65899543302805],[16.34828370018808,56.658998019816316]]]]}},{"type":"Feature","properties":{"uppdrag":"a2023_017","layer":"project_information"},"geometry":{"type":"Point","coordinates":[16.34816279466805,56.65898215606418]}}]}