{
 "type": "FeatureCollection",
 "name": "broborg",
 "_kommentar": "Broborg vid Långhundraleden (ledsegmentet för kontext). Verifierade koordinater: Broborg + Grimsahögen ur Wikidata P625 (Q29886005/Q29886007), Trefaldighetskällan ur RAÄ Fornsök (heritage_sites 'Källa med tradition'). Hönsgärde: UNGEFÄRLIGT läge vid byn på andra sidan borgberget. WGS84 [lng,lat].",
 "features": [
  {
   "type": "Feature",
   "properties": { "type": "Farled", "raa": "Långhundraleden — vattennivån ca 500 e.Kr. låg 6–7 m högre; dalen nedanför borgen var en bred segelbar farled" },
   "geometry": { "type": "LineString", "coordinates": [
     [18.2088, 59.5790], [17.9516, 59.7556], [17.7000, 59.8600]
   ] }
  },
  {
   "type": "Feature",
   "properties": { "type": "Fornborg", "label": "Broborg", "raa": "Broborg (95×85 m) — förglasad ringmur, utkik/tull/signalplats; borgen reste sig ~40 m över vattnet (Wikidata Q29886005, verifierad koord)" },
   "geometry": { "type": "Point", "coordinates": [17.951568, 59.755571] }
  },
  {
   "type": "Feature",
   "properties": { "type": "Gravhög", "label": "Grimsahögen", "raa": "Grimsahögen — gravhög vid ledens strand intill borgen, knuten till Grimsasägnen (Wikidata Q29886007, verifierad koord)" },
   "geometry": { "type": "Point", "coordinates": [17.944708, 59.754877] }
  },
  {
   "type": "Feature",
   "properties": { "type": "Helig källa", "label": "Trefaldighetskälla", "raa": "Trefaldighetskällan — offerkälla/källa med tradition nordväst om borgen (RAÄ Fornsök 'Källa med tradition', verifierad koord)" },
   "geometry": { "type": "Point", "coordinates": [17.95395, 59.75662] }
  },
  {
   "type": "Feature",
   "properties": { "type": "Gravfält", "label": "Hönsgärde gravfält", "raa": "Hönsgärde — järnåldersgravfält, 100+ gravar; trolig boplats vid nuvarande byn (ungefärligt läge)" },
   "geometry": { "type": "Point", "coordinates": [17.9640, 59.7500] }
  }
 ]
}
